NORAD_CAT_ID,OBJECT_NAME,OBJECT_TYPE,EPOCH,MEAN_MOTION,ECCENTRICITY,INCLINATION,RA_OF_ASC_NODE,ARG_OF_PERICENTER,MEAN_ANOMALY,BSTAR,MEAN_MOTION_DOT,MEAN_MOTION_DDOT,TLE_LINE0,TLE_LINE1,TLE_LINE2,SEMIMAJOR_AXIS,PERIOD,APOGEE,PERIGEE,DECAYED
49725.0,STARLINK-3218,PAYLOAD,2023-03-04 10:24:52,15.08875855,0.0001419,53.2159,52.951,104.2407,255.8742,0.00095128,0.00014899,0.0,0 STARLINK-3218,1 49725U 21115B   23063.43393717  .00014899  00000-0  95128-3 0  9997,2 49725  53.2159  52.9510 0001419 104.2407 255.8742 15.08875855 70393,6917.771,95.435,540.617,538.654,0.0
49725.0,STARLINK-3218,PAYLOAD,2023-03-04 16:46:25,15.08838351,0.0001942,53.2151,51.763,81.8507,278.2706,6.9732e-05,8.22e-06,0.0,0 STARLINK-3218,1 49725U 21115B   23063.69890867  .00000822  00000-0  69732-4 0  9997,2 49725  53.2151  51.7630 0001942  81.8507 278.2706 15.08838351 70431,6917.885,95.438,541.094,538.407,0.0
49725.0,STARLINK-3218,PAYLOAD,2023-03-05 08:40:17,15.08848134,0.0001502,53.2159,48.7876,84.3818,275.7345,0.0018229,0.00028849,0.0,0 STARLINK-3218,1 49725U 21115B   23064.36130837  .00028849  00000-0  18229-2 0  9998,2 49725  53.2159  48.7876 0001502  84.3818 275.7345 15.08848134 69420,6917.856,95.437,540.76,538.681,0.0
49725.0,STARLINK-3218,PAYLOAD,2023-03-06 02:09:31,15.08863784,0.0001251,53.2166,45.5164,100.4957,259.6176,0.0021105,0.00033482,0.0,0 STARLINK-3218,1 49725U 21115B   23065.08994870  .00033482  00000-0  21105-2 0  9999,2 49725  53.2166  45.5164 0001251 100.4957 259.6176 15.08863784 70645,6917.808,95.436,540.538,538.807,0.0
49725.0,STARLINK-3218,PAYLOAD,2023-03-06 10:06:26,15.08891573,0.0001412,53.2169,44.0286,113.3946,246.7195,0.002093,0.00033227,0.0,0 STARLINK-3218,1 49725U 21115B   23065.42113809  .00033227  00000-0  20930-2 0  9994,2 49725  53.2169  44.0286 0001412 113.3946 246.7195 15.08891573 69583,6917.723,95.434,540.565,538.611,0.0
49725.0,STARLINK-3218,PAYLOAD,2023-03-07 02:00:18,15.08845107,0.0001298,53.2181,41.055,121.8142,238.2977,0.0013736,0.00021643,0.0,0 STARLINK-3218,1 49725U 21115B   23066.08354685  .00021643  00000-0  13736-2 0  9991,2 49725  53.2181  41.0550 0001298 121.8142 238.2977 15.08845107 70793,6917.865,95.437,540.628,538.832,0.0
49725.0,STARLINK-3218,PAYLOAD,2023-03-07 09:57:13,15.08878341,7.3e-05,53.2166,39.5698,89.9223,270.1853,0.0032287,0.00051527,0.0,0 STARLINK-3218,1 49725U 21115B   23066.41474293  .00051527  00000-0  32287-2 0  9992,2 49725  53.2166  39.5698 0000730  89.9223 270.1853 15.08878341 70845,6917.763,95.435,540.133,539.123,0.0
49725.0,STARLINK-3218,PAYLOAD,2023-03-07 22:40:19,15.08853489,0.0001952,53.2168,37.1906,76.5065,283.6145,0.0015986,0.00025255,0.0,0 STARLINK-3218,1 49725U 21115B   23066.94467144  .00025255  00000-0  15986-2 0  9993,2 49725  53.2168  37.1906 0001952  76.5065 283.6145 15.08853489 69810,6917.839,95.437,541.055,538.354,0.0
49725.0,STARLINK-3218,PAYLOAD,2023-03-08 01:51:05,15.08847674,9.71e-05,53.2168,36.596,114.5773,245.5321,0.0016816,0.00026582,0.0,0 STARLINK-3218,1 49725U 21115B   23067.07715025  .00026582  00000-0  16816-2 0  9999,2 49725  53.2168  36.5960 0000971 114.5773 245.5321 15.08847674 70940,6917.857,95.437,540.394,539.05,0.0
49725.0,STARLINK-3218,PAYLOAD,2023-03-08 20:55:43,15.08861305,0.0001307,53.2166,33.0284,64.4961,295.6166,0.0022212,0.0003526,0.0,0 STARLINK-3218,1 49725U 21115B   23067.87203521  .00035260  00000-0  22212-2 0  9990,2 49725  53.2166  33.0284 0001307  64.4961 295.6166 15.08861305 69954,6917.815,95.436,540.584,538.776,0.0
49725.0,STARLINK-3218,PAYLOAD,2023-03-09 01:41:53,15.0886926,0.0001021,53.2167,32.1358,79.8158,280.2949,0.0030197,0.00048137,0.0,0 STARLINK-3218,1 49725U 21115B   23068.07075389  .00048137  00000-0  30197-2 0  9990,2 49725  53.2167  32.1358 0001021  79.8158 280.2949 15.08869260 71093,6917.791,95.436,540.362,538.95,0.0
49725.0,STARLINK-3218,PAYLOAD,2023-03-09 06:28:02,15.08879214,7.55e-05,53.2165,31.2435,90.403,269.7049,0.0027633,0.00044012,0.0,0 STARLINK-3218,1 49725U 21115B   23068.26946878  .00044012  00000-0  27633-2 0  9990,2 49725  53.2165  31.2435 0000755  90.4030 269.7049 15.08879214 71125,6917.761,95.435,540.148,539.103,0.0
49725.0,STARLINK-3218,PAYLOAD,2023-03-10 03:08:02,15.08889798,0.0001055,53.217,27.3787,112.5945,247.5159,0.0033112,0.00052877,0.0,0 STARLINK-3218,1 49725U 21115B   23069.13058451  .00052877  00000-0  33112-2 0  9995,2 49725  53.2170  27.3787 0001055 112.5945 247.5159 15.08889798 71250,6917.728,95.434,540.323,538.863,0.0
49725.0,STARLINK-3218,PAYLOAD,2023-03-10 14:15:45,15.08830003,0.0003026,53.2172,25.2976,65.8281,294.3027,0.00081939,0.00012773,0.0,0 STARLINK-3218,1 49725U 21115B   23069.59427696  .00012773  00000-0  81939-3 0  9998,2 49725  53.2172  25.2976 0003026  65.8281 294.3027 15.08830003 71329,6917.911,95.438,541.869,537.683,0.0
49725.0,STARLINK-3218,PAYLOAD,2023-03-11 02:58:51,15.08817511,0.0001463,53.2177,22.9169,62.4379,297.6762,0.0013328,0.00020974,0.0,0 STARLINK-3218,1 49725U 21115B   23070.12420210  .00020974  00000-0  13328-2 0  9992,2 49725  53.2177  22.9169 0001463  62.4379 297.6762 15.08817511 71406,6917.949,95.439,540.826,538.802,0.0
49725.0,STARLINK-3218,PAYLOAD,2023-03-11 06:09:37,15.08827595,0.000175,53.2183,22.3213,64.2453,295.8719,0.002116,0.00033537,0.0,0 STARLINK-3218,1 49725U 21115B   23070.25668417  .00033537  00000-0  21160-2 0  9991,2 49725  53.2183  22.3213 0001750  64.2453 295.8719 15.08827595 70313,6917.918,95.438,540.994,538.573,0.0
49725.0,STARLINK-3218,PAYLOAD,2023-03-11 20:28:05,15.08838963,0.000111,53.2177,19.6456,74.3166,285.7948,0.00083673,0.00013053,0.0,0 STARLINK-3218,1 49725U 21115B   23070.85284614  .00013053  00000-0  83673-3 0  9999,2 49725  53.2177  19.6456 0001110  74.3166 285.7948 15.08838963 70400,6917.884,95.438,540.516,538.981,0.0
49725.0,STARLINK-3218,PAYLOAD,2023-03-12 02:49:38,15.08857948,0.000131,53.2168,18.4592,73.1509,286.9627,0.001651,0.00026098,0.0,0 STARLINK-3218,1 49725U 21115B   23071.11780382  .00026098  00000-0  16510-2 0  9990,2 49725  53.2168  18.4592 0001310  73.1509 286.9627 15.08857948 70443,6917.826,95.436,540.597,538.784,0.0
49725.0,STARLINK-3218,PAYLOAD,2023-03-12 23:29:38,15.08862815,0.0001867,53.2179,14.5948,113.0964,247.0225,0.0010165,0.00015937,0.0,0 STARLINK-3218,1 49725U 21115B   23071.97891703  .00015937  00000-0  10165-2 0  9994,2 49725  53.2179  14.5948 0001867 113.0964 247.0225 15.08862815 71681,6917.811,95.436,540.967,538.384,0.0
49725.0,STARLINK-3218,PAYLOAD,2023-03-13 01:05:01,15.08861296,0.0001695,53.2182,14.2947,116.7232,243.3933,0.00049086,7.537e-05,0.0,0 STARLINK-3218,1 49725U 21115B   23072.04515481  .00007537  00000-0  49086-3 0  9991,2 49725  53.2182  14.2947 0001695 116.7232 243.3933 15.08861296 70583,6917.815,95.436,540.853,538.508,0.0
49725.0,STARLINK-3218,PAYLOAD,2023-03-13 20:09:40,15.08827786,0.0001609,53.2175,10.7262,86.3674,273.7502,0.00028287,4.215e-05,0.0,0 STARLINK-3218,1 49725U 21115B   23072.84004792  .00004215  00000-0  28287-3 0  9997,2 49725  53.2175  10.7262 0001609  86.3674 273.7502 15.08827786 70702,6917.918,95.438,540.896,538.67,0.0
49725.0,STARLINK-3218,PAYLOAD,2023-03-14 02:31:12,15.08836863,0.000153,53.2182,9.5372,87.843,272.2738,0.00093452,0.00014615,0.0,0 STARLINK-3218,1 49725U 21115B   23073.10500960  .00014615  00000-0  93452-3 0  9996,2 49725  53.2182   9.5372 0001530  87.8430 272.2738 15.08836863 71855,6917.89,95.438,540.813,538.697,0.0
49725.0,STARLINK-3218,PAYLOAD,2023-03-15 02:21:58,15.08882275,0.0001866,53.2183,5.0782,105.9225,254.1972,0.0020695,0.0003284,0.0,0 STARLINK-3218,1 49725U 21115B   23074.09859793  .00032840  00000-0  20695-2 0  9994,2 49725  53.2183   5.0782 0001866 105.9225 254.1972 15.08882275 72003,6917.751,95.435,540.907,538.325,0.0
49725.0,STARLINK-3218,PAYLOAD,2023-03-16 02:12:45,15.08855727,0.0001213,53.2181,0.6176,93.5536,266.5595,0.00034259,5.171e-05,0.0,0 STARLINK-3218,1 49725U 21115B   23075.09219184  .00005171  00000-0  34259-3 0  9998,2 49725  53.2181   0.6176 0001213  93.5536 266.5595 15.08855727 72158,6917.832,95.437,540.536,538.858,0.0
49725.0,STARLINK-3218,PAYLOAD,2023-03-16 05:23:31,15.08860502,0.0001033,53.2178,0.0209,74.2863,285.8243,0.00062186,9.628e-05,0.0,0 STARLINK-3218,1 49725U 21115B   23075.22467056  .00009628  00000-0  62186-3 0  9997,2 49725  53.2178   0.0209 0001033  74.2863 285.8243 15.08860502 71064,6917.818,95.436,540.397,538.968,0.0
49725.0,STARLINK-3218,PAYLOAD,2023-03-16 18:06:37,15.08807913,0.0001566,53.2176,357.6443,75.3733,284.7432,0.0001834,2.63e-05,0.0,0 STARLINK-3218,1 49725U 21115B   23075.75460439  .00002630  00000-0  18340-3 0  9992,2 49725  53.2176 357.6443 0001566  75.3733 284.7432 15.08807913 72259,6917.978,95.44,540.927,538.76,0.0
49725.0,STARLINK-3218,PAYLOAD,2023-03-17 11:35:53,15.08833972,0.0001061,53.2174,354.3724,91.1733,268.9381,0.00099662,0.00015606,0.0,0 STARLINK-3218,1 49725U 21115B   23076.48325279  .00015606  00000-0  99662-3 0  9998,2 49725  53.2174 354.3724 0001061  91.1733 268.9381 15.08833972 71259,6917.899,95.438,540.498,539.03,0.0
49725.0,STARLINK-3218,PAYLOAD,2023-03-18 03:29:43,15.0886968,0.0001076,53.2175,351.3991,90.4643,269.6473,0.0015024,0.00023723,0.0,0 STARLINK-3218,1 49725U 21115B   23077.14564662  .00023723  00000-0  15024-2 0  9991,2 49725  53.2175 351.3991 0001076  90.4643 269.6473 15.08869680 72460,6917.79,95.436,540.399,538.91,0.0
49725.0,STARLINK-3218,PAYLOAD,2023-03-18 11:26:39,15.08857765,9.39e-05,53.2168,349.9122,86.5691,273.5409,0.00092445,0.00014462,0.0,0 STARLINK-3218,1 49725U 21115B   23077.47684521  .00014462  00000-0  92445-3 0  9997,2 49725  53.2168 349.9122 0000939  86.5691 273.5409 15.08857765 72517,6917.826,95.436,540.341,539.042,0.0
49725.0,STARLINK-3218,PAYLOAD,2023-03-18 22:34:21,15.08851215,0.0001411,53.2173,347.8298,93.129,266.9863,0.00096785,0.00015154,0.0,0 STARLINK-3218,1 49725U 21115B   23077.94052655  .00015154  00000-0  96785-3 0  9996,2 49725  53.2173 347.8298 0001411  93.1290 266.9863 15.08851215 71477,6917.846,95.437,540.687,538.735,0.0
